[{"OBJECT_NAME":"MESON-1","OBJECT_ID":"2024-043AK","EPOCH":"2026-03-09T21:36:16.481664","MEAN_MOTION":15.29893494,"ECCENTRICITY":0.00095452,"INCLINATION":97.5469,"RA_OF_ASC_NODE":205.2839,"ARG_OF_PERICENTER":227.1432,"MEAN_ANOMALY":132.9007,"EPHEMERIS_TYPE":0,"CLASSIFICATION_TYPE":"U","NORAD_CAT_ID":59131,"ELEMENT_SET_NO":999,"REV_AT_EPOCH":11189,"BSTAR":0.0002974823,"MEAN_MOTION_DOT":8.544e-5,"MEAN_MOTION_DDOT":0},{"OBJECT_NAME":"STARLINK-33991","OBJECT_ID":"2025-110AC","EPOCH":"2026-03-09T03:27:54.678240","MEAN_MOTION":15.30199785,"ECCENTRICITY":0.00012684,"INCLINATION":53.1603,"RA_OF_ASC_NODE":28.9602,"ARG_OF_PERICENTER":89.8434,"MEAN_ANOMALY":270.2712,"EPHEMERIS_TYPE":0,"CLASSIFICATION_TYPE":"U","NORAD_CAT_ID":64122,"ELEMENT_SET_NO":999,"REV_AT_EPOCH":4579,"BSTAR":0.0016903776,"MEAN_MOTION_DOT":0.00050042,"MEAN_MOTION_DDOT":0}]
